start=new Date('2022-01-17T00:00:00.000Z').valueOf();
sats=[{"TLE_LINE1":"1 48356U 21038D   22016.54989685  .00004916  00000-0  34848-3 0  9995","INCLINATION":"53.0570","MEAN_ANOMALY":"292.4270","OBJECT_TYPE":"PAYLOAD","COUNTRY_CODE":"US","SITE":"AFETR","FILE":"3274671","EPHEMERIS_TYPE":"0","TIME_SYSTEM":"UTC","PERIAPSIS":"546.021","ELEMENT_SET_NO":"999","ARG_OF_PERICENTER":"67.6891","MEAN_MOTION_DDOT":"0.0000000000000","MEAN_MOTION_DOT":"0.00004916","EPOCH":"2022-01-16T13:11:51.087840","NORAD_CAT_ID":"48356","REV_AT_EPOCH":"3896","OBJECT_ID":"2021-038D","BSTAR":"0.00034848000000","ECCENTRICITY":"0.00016260","PERIOD":"95.591","SEMIMAJOR_AXIS":"6925.282","MEAN_MOTION":"15.06421626","CLASSIFICATION_TYPE":"U","GP_ID":"193984637","OBJECT_NAME":"STARLINK-2637","CENTER_NAME":"EARTH","RA_OF_ASC_NODE":"314.3684","MEAN_ELEMENT_THEORY":"SGP4","REF_FRAME":"TEME","LAUNCH_DATE":"2021-05-04","RCS_SIZE":"LARGE","TLE_LINE2":"2 48356  53.0570 314.3684 0001626  67.6891 292.4270 15.06421626 38964","APOAPSIS":"548.273","DECAY_DATE":null},{"REF_FRAME":"TEME","LAUNCH_DATE":"2021-05-04","MEAN_ELEMENT_THEORY":"SGP4","RA_OF_ASC_NODE":"313.1919","TLE_LINE2":"2 48357  53.0556 313.1919 0001942  70.5082 289.6117 15.06414406 39599","APOAPSIS":"548.514","DECAY_DATE":null,"RCS_SIZE":"LARGE","REV_AT_EPOCH":"3959","NORAD_CAT_ID":"48357","MEAN_MOTION_DOT":"0.00002440","MEAN_MOTION_DDOT":"0.0000000000000","EPOCH":"2022-01-16T19:28:42.494016","OBJECT_NAME":"STARLINK-2636","GP_ID":"193991998","CENTER_NAME":"EARTH","PERIOD":"95.591","SEMIMAJOR_AXIS":"6925.304","MEAN_MOTION":"15.06414406","BSTAR":"0.00018256000000","OBJECT_ID":"2021-038E","ECCENTRICITY":"0.00019420","CLASSIFICATION_TYPE":"U","PERIAPSIS":"545.825","TIME_SYSTEM":"UTC","ELEMENT_SET_NO":"999","ARG_OF_PERICENTER":"70.5082","TLE_LINE1":"1 48357U 21038E   22016.81160294  .00002440  00000-0  18256-3 0  9998","INCLINATION":"53.0556","SITE":"AFETR","FILE":"3274852","EPHEMERIS_TYPE":"0","COUNTRY_CODE":"US","OBJECT_TYPE":"PAYLOAD","MEAN_ANOMALY":"289.6117"},{"EPOCH":"2022-01-16T19:23:23.856864","MEAN_MOTION_DDOT":"0.0000000000000","MEAN_MOTION_DOT":"0.00001772","NORAD_CAT_ID":"48358","REV_AT_EPOCH":"3958","CLASSIFICATION_TYPE":"U","BSTAR":"0.00013776000000","ECCENTRICITY":"0.00017430","OBJECT_ID":"2021-038F","PERIOD":"95.591","SEMIMAJOR_AXIS":"6925.307","MEAN_MOTION":"15.06413574","CENTER_NAME":"EARTH","GP_ID":"193995314","OBJECT_NAME":"STARLINK-2624","RA_OF_ASC_NODE":"313.2018","MEAN_ELEMENT_THEORY":"SGP4","LAUNCH_DATE":"2021-05-04","REF_FRAME":"TEME","RCS_SIZE":"LARGE","DECAY_DATE":null,"TLE_LINE2":"2 48358  53.0549 313.2018 0001743  70.5918 289.5260 15.06413574 39582","APOAPSIS":"548.379","INCLINATION":"53.0549","TLE_LINE1":"1 48358U 21038F   22016.80791501  .00001772  00000-0  13776-3 0  9998","MEAN_ANOMALY":"289.5260","OBJECT_TYPE":"PAYLOAD","COUNTRY_CODE":"US","EPHEMERIS_TYPE":"0","FILE":"3275008","SITE":"AFETR","ELEMENT_SET_NO":"999","PERIAPSIS":"545.965","TIME_SYSTEM":"UTC","ARG_OF_PERICENTER":"70.5918"},{"TLE_LINE1":"1 48359U 21038G   22016.60518814  .00002684  00000-0  19895-3 0  9992","INCLINATION":"53.0566","FILE":"3274865","SITE":"AFETR","EPHEMERIS_TYPE":"0","COUNTRY_CODE":"US","OBJECT_TYPE":"PAYLOAD","MEAN_ANOMALY":"291.1074","PERIAPSIS":"545.934","TIME_SYSTEM":"UTC","ELEMENT_SET_NO":"999","ARG_OF_PERICENTER":"69.0104","REV_AT_EPOCH":"4020","NORAD_CAT_ID":"48359","MEAN_MOTION_DOT":"0.00002684","MEAN_MOTION_DDOT":"0.0000000000000","EPOCH":"2022-01-16T14:31:28.255296","OBJECT_NAME":"STARLINK-2628","GP_ID":"193992013","CENTER_NAME":"EARTH","PERIOD":"95.591","MEAN_MOTION":"15.06417657","SEMIMAJOR_AXIS":"6925.294","ECCENTRICITY":"0.00017690","BSTAR":"0.00019895000000","OBJECT_ID":"2021-038G","CLASSIFICATION_TYPE":"U","REF_FRAME":"TEME","LAUNCH_DATE":"2021-05-04","MEAN_ELEMENT_THEORY":"SGP4","RA_OF_ASC_NODE":"314.1208","TLE_LINE2":"2 48359  53.0566 314.1208 0001769  69.0104 291.1074 15.06417657 40200","APOAPSIS":"548.385","DECAY_DATE":null,"RCS_SIZE":"LARGE"},{"ELEMENT_SET_NO":"999","PERIAPSIS":"546.138","TIME_SYSTEM":"UTC","ARG_OF_PERICENTER":"62.8295","INCLINATION":"53.0575","TLE_LINE1":"1 48360U 21038H   22016.86688780  .00000174  00000-0  30556-4 0  9992","COUNTRY_CODE":"US","OBJECT_TYPE":"PAYLOAD","MEAN_ANOMALY":"297.2848","FILE":"3274978","SITE":"AFETR","EPHEMERIS_TYPE":"0","MEAN_ELEMENT_THEORY":"SGP4","RA_OF_ASC_NODE":"312.9396","LAUNCH_DATE":"2021-05-04","REF_FRAME":"TEME","RCS_SIZE":"LARGE","DECAY_DATE":null,"APOAPSIS":"548.226","TLE_LINE2":"2 48360  53.0575 312.9396 0001508  62.8295 297.2848 15.06410326 39591","EPOCH":"2022-01-16T20:48:19.105920","MEAN_MOTION_DOT":"0.00000174","MEAN_MOTION_DDOT":"0.0000000000000","REV_AT_EPOCH":"3959","NORAD_CAT_ID":"48360","CLASSIFICATION_TYPE":"U","PERIOD":"95.591","SEMIMAJOR_AXIS":"6925.317","MEAN_MOTION":"15.06410326","OBJECT_ID":"2021-038H","BSTAR":"0.00003055600000","ECCENTRICITY":"0.00015080","CENTER_NAME":"EARTH","OBJECT_NAME":"STARLINK-2622","GP_ID":"193994420"},{"PERIAPSIS":"545.894","TIME_SYSTEM":"UTC","ELEMENT_SET_NO":"999","ARG_OF_PERICENTER":"64.5467","TLE_LINE1":"1 48361U 21038J   22016.79685571  .00000470  00000-0  50473-4 0  9999","INCLINATION":"53.0492","MEAN_ANOMALY":"295.5713","OBJECT_TYPE":"PAYLOAD","COUNTRY_CODE":"US","FILE":"3274803","SITE":"AFETR","EPHEMERIS_TYPE":"0","RA_OF_ASC_NODE":"313.2651","MEAN_ELEMENT_THEORY":"SGP4","REF_FRAME":"TEME","LAUNCH_DATE":"2021-05-04","RCS_SIZE":"LARGE","TLE_LINE2":"2 48361  53.0492 313.2651 0001845  64.5467 295.5713 15.06413805 39588","APOAPSIS":"548.449","DECAY_DATE":null,"MEAN_MOTION_DDOT":"0.0000000000000","MEAN_MOTION_DOT":"0.00000470","EPOCH":"2022-01-16T19:07:28.333344","NORAD_CAT_ID":"48361","REV_AT_EPOCH":"3958","OBJECT_ID":"2021-038J","BSTAR":"0.00005047300000","ECCENTRICITY":"0.00018450","PERIOD":"95.591","SEMIMAJOR_AXIS":"6925.306","MEAN_MOTION":"15.06413805","CLASSIFICATION_TYPE":"U","GP_ID":"193990636","OBJECT_NAME":"STARLINK-2591","CENTER_NAME":"EARTH"},{"COUNTRY_CODE":"US","MEAN_ANOMALY":"296.1545","OBJECT_TYPE":"PAYLOAD","FILE":"3274803","SITE":"AFETR","EPHEMERIS_TYPE":"0","INCLINATION":"53.0591","TLE_LINE1":"1 48362U 21038K   22016.55632705  .00002758  00000-0  20387-3 0  9996","ARG_OF_PERICENTER":"63.9634","ELEMENT_SET_NO":"999","TIME_SYSTEM":"UTC","PERIAPSIS":"545.870","CLASSIFICATION_TYPE":"U","PERIOD":"95.591","MEAN_MOTION":"15.06420697","SEMIMAJOR_AXIS":"6925.285","ECCENTRICITY":"0.00018490","BSTAR":"0.00020387000000","OBJECT_ID":"2021-038K","CENTER_NAME":"EARTH","OBJECT_NAME":"STARLINK-2578","GP_ID":"193990637","EPOCH":"2022-01-16T13:21:06.657120","MEAN_MOTION_DDOT":"0.0000000000000","MEAN_MOTION_DOT":"0.00002758","NORAD_CAT_ID":"48362","REV_AT_EPOCH":"3955","RCS_SIZE":"LARGE","DECAY_DATE":null,"TLE_LINE2":"2 48362  53.0591 314.3277 0001849  63.9634 296.1545 15.06420697 39552","APOAPSIS":"548.431","MEAN_ELEMENT_THEORY":"SGP4","RA_OF_ASC_NODE":"314.3277","LAUNCH_DATE":"2021-05-04","REF_FRAME":"TEME"},{"INCLINATION":"53.0561","TLE_LINE1":"1 48363U 21038L   22016.50797682  .00004057  00000-0  29100-3 0  9994","SITE":"AFETR","FILE":"3274671","EPHEMERIS_TYPE":"0","COUNTRY_CODE":"US","OBJECT_TYPE":"PAYLOAD","MEAN_ANOMALY":"285.4372","ELEMENT_SET_NO":"999","PERIAPSIS":"545.791","TIME_SYSTEM":"UTC","ARG_OF_PERICENTER":"74.6835","NORAD_CAT_ID":"48363","REV_AT_EPOCH":"3902","EPOCH":"2022-01-16T12:11:29.197248","MEAN_MOTION_DDOT":"0.0000000000000","MEAN_MOTION_DOT":"0.00004057","CENTER_NAME":"EARTH","OBJECT_NAME":"STARLINK-2626","GP_ID":"193984388","CLASSIFICATION_TYPE":"U","SEMIMAJOR_AXIS":"6925.293","PERIOD":"95.591","MEAN_MOTION":"15.06417995","OBJECT_ID":"2021-038L","BSTAR":"0.00029100000000","ECCENTRICITY":"0.00019750","LAUNCH_DATE":"2021-05-04","REF_FRAME":"TEME","MEAN_ELEMENT_THEORY":"SGP4","RA_OF_ASC_NODE":"309.5482","DECAY_DATE":null,"TLE_LINE2":"2 48363  53.0561 309.5482 0001975  74.6835 285.4372 15.06417995 39024","APOAPSIS":"548.526","RCS_SIZE":"LARGE"},{"NORAD_CAT_ID":"48364","REV_AT_EPOCH":"3902","MEAN_MOTION_DDOT":"0.0000000000000","MEAN_MOTION_DOT":"0.00001427","EPOCH":"2022-01-16T12:04:48.716832","OBJECT_NAME":"STARLINK-2611","GP_ID":"193984638","CENTER_NAME":"EARTH","PERIOD":"95.591","SEMIMAJOR_AXIS":"6925.314","MEAN_MOTION":"15.06411392","ECCENTRICITY":"0.00016610","BSTAR":"0.00011463000000","OBJECT_ID":"2021-038M","CLASSIFICATION_TYPE":"U","REF_FRAME":"TEME","LAUNCH_DATE":"2021-05-04","MEAN_ELEMENT_THEORY":"SGP4","RA_OF_ASC_NODE":"309.5769","TLE_LINE2":"2 48364  53.0575 309.5769 0001661  77.8262 282.2913 15.06411392 39020","APOAPSIS":"548.329","DECAY_DATE":null,"RCS_SIZE":"LARGE","TLE_LINE1":"1 48364U 21038M   22016.50334163  .00001427  00000-0  11463-3 0  9997","INCLINATION":"53.0575","EPHEMERIS_TYPE":"0","FILE":"3274671","SITE":"AFETR","COUNTRY_CODE":"US","OBJECT_TYPE":"PAYLOAD","MEAN_ANOMALY":"282.2913","PERIAPSIS":"546.028","TIME_SYSTEM":"UTC","ELEMENT_SET_NO":"999","ARG_OF_PERICENTER":"77.8262"},{"MEAN_MOTION_DOT":"0.00005961","MEAN_MOTION_DDOT":"0.0000000000000","EPOCH":"2022-01-16T13:09:52.065792","NORAD_CAT_ID":"48365","REV_AT_EPOCH":"3903","BSTAR":"0.00041846000000","OBJECT_ID":"2021-038N","ECCENTRICITY":"0.00018640","PERIOD":"95.591","SEMIMAJOR_AXIS":"6925.279","MEAN_MOTION":"15.06422697","CLASSIFICATION_TYPE":"U","GP_ID":"193985889","OBJECT_NAME":"STARLINK-2608","CENTER_NAME":"EARTH","RA_OF_ASC_NODE":"309.3812","MEAN_ELEMENT_THEORY":"SGP4","REF_FRAME":"TEME","LAUNCH_DATE":"2021-05-04","RCS_SIZE":"LARGE","APOAPSIS":"548.435","TLE_LINE2":"2 48365  53.0571 309.3812 0001864  65.4098 294.7085 15.06422697 39038","DECAY_DATE":null,"TLE_LINE1":"1 48365U 21038N   22016.54851928  .00005961  00000-0  41846-3 0  9990","INCLINATION":"53.0571","MEAN_ANOMALY":"294.7085","OBJECT_TYPE":"PAYLOAD","COUNTRY_CODE":"US","FILE":"3274671","SITE":"AFETR","EPHEMERIS_TYPE":"0","PERIAPSIS":"545.853","TIME_SYSTEM":"UTC","ELEMENT_SET_NO":"999","ARG_OF_PERICENTER":"65.4098"}];
